{
  "type": "FeatureCollection",
  "features": [
    {
      "type": "Feature",
      "properties": {
        "norad_id": 66378,
        "name": "SHIYAN-32 02",
        "group": "last-30-days",
        "lat": 42.48831935481992,
        "lon": -4.012838291227527,
        "alt_km": 431.0326096567005,
        "timestamp": "2025-12-03T22:42:31.474782+00:00",
        "meta_object_name": "SHIYAN-32 02",
        "meta_object_id": "2025-255C",
        "meta_epoch": "2025-12-03T17:31:21.847872",
        "meta_mean_motion": 15.4415973,
        "meta_eccentricity": 0.0012472,
        "meta_inclination": 52.9964,
        "meta_ra_of_asc_node": 220.7104,
        "meta_arg_of_pericenter": 11.3386,
        "meta_mean_anomaly": 348.7897,
        "meta_ephemeris_type": 0,
        "meta_classification_type": "U",
        "meta_norad_cat_id": 66378,
        "meta_element_set_no": 999,
        "meta_rev_at_epoch": 382,
        "meta_bstar": 0.00168,
        "meta_mean_motion_dot": 0.00078798,
        "meta_mean_motion_ddot": 0,
        "tle_line1": "1 66378U 25255C   25337.73011398  .00078798  00000+0  16800-2 0  9996",
        "tle_line2": "2 66378  52.9964 220.7104 0012472  11.3386 348.7897 15.44159730  3829"
      },
      "geometry": {
        "type": "Point",
        "coordinates": [
          -4.012838291227527,
          42.48831935481992
        ]
      }
    },
    {
      "type": "Feature",
      "properties": {
        "norad_id": 66379,
        "name": "SHIYAN-32 03",
        "group": "last-30-days",
        "lat": 41.66124275524422,
        "lon": -98.04307640124651,
        "alt_km": 424.72357965415995,
        "timestamp": "2025-12-03T22:42:31.474791+00:00",
        "meta_object_name": "SHIYAN-32 03",
        "meta_object_id": "2025-255D",
        "meta_epoch": "2025-12-03T16:14:48.295968",
        "meta_mean_motion": 15.42648161,
        "meta_eccentricity": 0.0015455,
        "meta_inclination": 52.9971,
        "meta_ra_of_asc_node": 221.0904,
        "meta_arg_of_pericenter": 15.1413,
        "meta_mean_anomaly": 345.0051,
        "meta_ephemeris_type": 0,
        "meta_classification_type": "U",
        "meta_norad_cat_id": 66379,
        "meta_element_set_no": 999,
        "meta_rev_at_epoch": 383,
        "meta_bstar": 0.00057662,
        "meta_mean_motion_dot": 0.00025277,
        "meta_mean_motion_ddot": 0,
        "tle_line1": "1 66379U 25255D   25337.67694787  .00025277  00000+0  57662-3 0  9995",
        "tle_line2": "2 66379  52.9971 221.0904 0015455  15.1413 345.0051 15.42648161  3839"
      },
      "geometry": {
        "type": "Point",
        "coordinates": [
          -98.04307640124651,
          41.66124275524422
        ]
      }
    },
    {
      "type": "Feature",
      "properties": {
        "norad_id": 66380,
        "name": "STARLINK-35139",
        "group": "last-30-days",
        "lat": -4.119078464563432,
        "lon": -57.00597803010761,
        "alt_km": 448.6579642811157,
        "timestamp": "2025-12-03T22:42:31.474802+00:00",
        "meta_object_name": "STARLINK-35139",
        "meta_object_id": "2025-257A",
        "meta_epoch": "2025-12-03T12:00:02.998944",
        "meta_mean_motion": 15.39583253,
        "meta_eccentricity": 0.0001076,
        "meta_inclination": 53.1583,
        "meta_ra_of_asc_node": 308.1921,
        "meta_arg_of_pericenter": 82.1944,
        "meta_mean_anomaly": 318.4914,
        "meta_ephemeris_type": 0,
        "meta_classification_type": "U",
        "meta_norad_cat_id": 66380,
        "meta_element_set_no": 999,
        "meta_rev_at_epoch": 495,
        "meta_bstar": 0.0008269,
        "meta_mean_motion_dot": 0.00032778,
        "meta_mean_motion_ddot": 0,
        "tle_line1": "1 66380U 25257A   25337.50003471  .00032778  00000+0  82690-3 0  9998",
        "tle_line2": "2 66380  53.1583 308.1921 0001076  82.1944 318.4914 15.39583253  4958"
      },
      "geometry": {
        "type": "Point",
        "coordinates": [
          -57.00597803010761,
          -4.119078464563432
        ]
      }
    },
    {
      "type": "Feature",
      "properties": {
        "norad_id": 66381,
        "name": "STARLINK-35158",
        "group": "last-30-days",
        "lat": -2.666015775446156,
        "lon": -55.91565436920567,
        "alt_km": 448.4888030238799,
        "timestamp": "2025-12-03T22:42:31.474811+00:00",
        "meta_object_name": "STARLINK-35158",
        "meta_object_id": "2025-257B",
        "meta_epoch": "2025-12-03T12:00:02.998944",
        "meta_mean_motion": 15.39583402,
        "meta_eccentricity": 0.0001337,
        "meta_inclination": 53.1582,
        "meta_ra_of_asc_node": 308.188,
        "meta_arg_of_pericenter": 85.231,
        "meta_mean_anomaly": 317.2743,
        "meta_ephemeris_type": 0,
        "meta_classification_type": "U",
        "meta_norad_cat_id": 66381,
        "meta_element_set_no": 999,
        "meta_rev_at_epoch": 501,
        "meta_bstar": 0.00086664,
        "meta_mean_motion_dot": 0.0003438,
        "meta_mean_motion_ddot": 0,
        "tle_line1": "1 66381U 25257B   25337.50003471  .00034380  00000+0  86664-3 0  9995",
        "tle_line2": "2 66381  53.1582 308.1880 0001337  85.2310 317.2743 15.39583402  5014"
      },
      "geometry": {
        "type": "Point",
        "coordinates": [
          -55.91565436920567,
          -2.666015775446156
        ]
      }
    },
    {
      "type": "Feature",
      "properties": {
        "norad_id": 66382,
        "name": "STARLINK-35639",
        "group": "last-30-days",
        "lat": 16.337627519181524,
        "lon": -41.26817447901171,
        "alt_km": 445.55359038939696,
        "timestamp": "2025-12-03T22:42:31.474820+00:00",
        "meta_object_name": "STARLINK-35639",
        "meta_object_id": "2025-257C",
        "meta_epoch": "2025-12-03T12:00:02.998944",
        "meta_mean_motion": 15.39579351,
        "meta_eccentricity": 0.000128,
        "meta_inclination": 53.1588,
        "meta_ra_of_asc_node": 308.1388,
        "meta_arg_of_pericenter": 93.7574,
        "meta_mean_anomaly": 332.6559,
        "meta_ephemeris_type": 0,
        "meta_classification_type": "U",
        "meta_norad_cat_id": 66382,
        "meta_element_set_no": 999,
        "meta_rev_at_epoch": 501,
        "meta_bstar": 0.0010246,
        "meta_mean_motion_dot": 0.00040748,
        "meta_mean_motion_ddot": 0,
        "tle_line1": "1 66382U 25257C   25337.50003471  .00040748  00000+0  10246-2 0  9993",
        "tle_line2": "2 66382  53.1588 308.1388 0001280  93.7574 332.6559 15.39579351  5011"
      },
      "geometry": {
        "type": "Point",
        "coordinates": [
          -41.26817447901171,
          16.337627519181524
        ]
      }
    },
    {
      "type": "Feature",
      "properties": {
        "norad_id": 66383,
        "name": "STARLINK-35690",
        "group": "last-30-days",
        "lat": 35.38714553062211,
        "lon": -21.83651853807362,
        "alt_km": 442.21006220228173,
        "timestamp": "2025-12-03T22:42:31.474830+00:00",
        "meta_object_name": "STARLINK-35690",
        "meta_object_id": "2025-257D",
        "meta_epoch": "2025-12-03T12:00:02.998944",
        "meta_mean_motion": 15.39564441,
        "meta_eccentricity": 0.000146,
        "meta_inclination": 53.159,
        "meta_ra_of_asc_node": 308.0876,
        "meta_arg_of_pericenter": 101.0226,
        "meta_mean_anomaly": 351.1688,
        "meta_ephemeris_type": 0,
        "meta_classification_type": "U",
        "meta_norad_cat_id": 66383,
        "meta_element_set_no": 999,
        "meta_rev_at_epoch": 501,
        "meta_bstar": 0.0011394,
        "meta_mean_motion_dot": 0.00045365,
        "meta_mean_motion_ddot": 0,
        "tle_line1": "1 66383U 25257D   25337.50003471  .00045365  00000+0  11394-2 0  9999",
        "tle_line2": "2 66383  53.1590 308.0876 0001460 101.0226 351.1688 15.39564441  5016"
      },
      "geometry": {
        "type": "Point",
        "coordinates": [
          -21.83651853807362,
          35.38714553062211
        ]
      }
    },
    {
      "type": "Feature",
      "properties": {
        "norad_id": 66384,
        "name": "STARLINK-35662",
        "group": "last-30-days",
        "lat": 36.61881523041484,
        "lon": -20.156347813736915,
        "alt_km": 441.9238261858727,
        "timestamp": "2025-12-03T22:42:31.474839+00:00",
        "meta_object_name": "STARLINK-35662",
        "meta_object_id": "2025-257E",
        "meta_epoch": "2025-12-03T12:00:02.998944",
        "meta_mean_motion": 15.39561211,
        "meta_eccentricity": 0.0001452,
        "meta_inclination": 53.1589,
        "meta_ra_of_asc_node": 308.0846,
        "meta_arg_of_pericenter": 95.7977,
        "meta_mean_anomaly": 358.2296,
        "meta_ephemeris_type": 0,
        "meta_classification_type": "U",
        "meta_norad_cat_id": 66384,
        "meta_element_set_no": 999,
        "meta_rev_at_epoch": 501,
        "meta_bstar": 0.0011957,
        "meta_mean_motion_dot": 0.00047633,
        "meta_mean_motion_ddot": 0,
        "tle_line1": "1 66384U 25257E   25337.50003471  .00047633  00000+0  11957-2 0  9995",
        "tle_line2": "2 66384  53.1589 308.0846 0001452  95.7977 358.2296 15.39561211  5010"
      },
      "geometry": {
        "type": "Point",
        "coordinates": [
          -20.156347813736915,
          36.61881523041484
        ]
      }
    }
  ]
}